[
    {
        "Altitude(m)": 617719.7942583837,
        "Argument of Periapsis(deg)": 0.0,
        "Eccentricity": 0.0,
        "Inclination(deg)": 60.0,
        "Latitude(deg)": -41.102703224668836,
        "Longitude(deg)": -99.90539385323166,
        "Mean Anomaly(deg)": -130.90909999999997,
        "RAAN(deg)": 150.0,
        "Satellite Name": "Test1 674",
        "Satellite Number": 674,
        "Semi-Major Axis(m)": 6980739.136638005,
        "Time(s)": 0
    },
    {
        "Altitude(m)": 617911.3303654653,
        "Argument of Periapsis(deg)": 0.00010418945913296404,
        "Eccentricity": 0.0,
        "Inclination(deg)": 60.0,
        "Latitude(deg)": -41.565895607053875,
        "Longitude(deg)": -99.40098748567992,
        "Mean Anomaly(deg)": -130.28899385453818,
        "RAAN(deg)": 149.99957995086027,
        "Satellite Name": "Test1 674",
        "Satellite Number": 674,
        "Semi-Major Axis(m)": 6980739.136638005,
        "Time(s)": 10
    },
    {
        "Altitude(m)": 618101.7412407183,
        "Argument of Periapsis(deg)": 0.0002083789182659281,
        "Eccentricity": 0.0,
        "Inclination(deg)": 60.0,
        "Latitude(deg)": -42.02640948639723,
        "Longitude(deg)": -98.88877371316433,
        "Mean Anomaly(deg)": -129.6688877090763,
        "RAAN(deg)": 149.99915990172053,
        "Satellite Name": "Test1 674",
        "Satellite Number": 674,
        "Semi-Major Axis(m)": 6980739.136638005,
        "Time(s)": 20
    },
    {
        "Altitude(m)": 618290.9538567665,
        "Argument of Periapsis(deg)": 0.00031256837739889213,
        "Eccentricity": 0.0,
        "Inclination(deg)": 60.0,
        "Latitude(deg)": -42.48416461582414,
        "Longitude(deg)": -98.36855784935304,
        "Mean Anomaly(deg)": -129.0487815636145,
        "RAAN(deg)": 149.99873985258077,
        "Satellite Name": "Test1 674",
        "Satellite Number": 674,
        "Semi-Major Axis(m)": 6980739.136638005,
        "Time(s)": 30
    },
    {
        "Altitude(m)": 618478.8955634404,
        "Argument of Periapsis(deg)": 0.0004167578365318562,
        "Eccentricity": 0.0,
        "Inclination(deg)": 60.0,
        "Latitude(deg)": -42.93907822339397,
        "Longitude(deg)": -97.8401414142028,
        "Mean Anomaly(deg)": -128.42867541815266,
        "RAAN(deg)": 149.99831980344103,
        "Satellite Name": "Test1 674",
        "Satellite Number": 674,
        "Semi-Major Axis(m)": 6980739.136638005,
        "Time(s)": 40
    },
    {
        "Altitude(m)": 618665.4941194459,
        "Argument of Periapsis(deg)": 0.0005209472956648203,
        "Eccentricity": 0.0,
        "Inclination(deg)": 60.0,
        "Latitude(deg)": -43.391064933986016,
        "Longitude(deg)": -97.30332323187702,
        "Mean Anomaly(deg)": -127.80856927269082,
        "RAAN(deg)": 149.9978997543013,
        "Satellite Name": "Test1 674",
        "Satellite Number": 674,
        "Semi-Major Axis(m)": 6980739.136638005,
        "Time(s)": 50
    },
    {
        "Altitude(m)": 618850.6777238077,
        "Argument of Periapsis(deg)": 0.0006251367547977843,
        "Eccentricity": 0.0,
        "Inclination(deg)": 60.0,
        "Latitude(deg)": -43.84003669054536,
        "Longitude(deg)": -96.7578990355385,
        "Mean Anomaly(deg)": -127.18846312722899,
        "RAAN(deg)": 149.99747970516157,
        "Satellite Name": "Test1 674",
        "Satellite Number": 674,
        "Semi-Major Axis(m)": 6980739.136638005,
        "Time(s)": 60
    },
    {
        "Altitude(m)": 619034.3750471142,
        "Argument of Periapsis(deg)": 0.0007293262139307483,
        "Eccentricity": 0.0,
        "Inclination(deg)": 60.0,
        "Latitude(deg)": -44.28590267491979,
        "Longitude(deg)": -96.20366109376035,
        "Mean Anomaly(deg)": -126.56835698176718,
        "RAAN(deg)": 149.9970596560218,
        "Satellite Name": "Test1 674",
        "Satellite Number": 674,
        "Semi-Major Axis(m)": 6980739.136638005,
        "Time(s)": 70
    },
    {
        "Altitude(m)": 619216.5152625057,
        "Argument of Periapsis(deg)": 0.0008335156730637124,
        "Eccentricity": 0.0,
        "Inclination(deg)": 60.0,
        "Latitude(deg)": -44.728569228553425,
        "Longitude(deg)": -95.64039937341606,
        "Mean Anomaly(deg)": -125.94825083630529,
        "RAAN(deg)": 149.99663960688207,
        "Satellite Name": "Test1 674",
        "Satellite Number": 674,
        "Semi-Major Axis(m)": 6980739.136638005,
        "Time(s)": 80
    },
    {
        "Altitude(m)": 619397.0280764604,
        "Argument of Periapsis(deg)": 0.0009377051321966765,
        "Eccentricity": 0.0,
        "Inclination(deg)": 60.0,
        "Latitude(deg)": -45.16793977334027,
        "Longitude(deg)": -95.06790121540473,
        "Mean Anomaly(deg)": -125.32814469084356,
        "RAAN(deg)": 149.99621955774234,
        "Satellite Name": "Test1 674",
        "Satellite Number": 674,
        "Semi-Major Axis(m)": 6980739.136638005,
        "Time(s)": 90
    },
    {
        "Altitude(m)": 619575.8437592876,
        "Argument of Periapsis(deg)": 0.0010418945913296407,
        "Eccentricity": 0.0,
        "Inclination(deg)": 60.0,
        "Latitude(deg)": -45.6039147329803,
        "Longitude(deg)": -94.48595103830881,
        "Mean Anomaly(deg)": -124.70803854538167,
        "RAAN(deg)": 149.9957995086026,
        "Satellite Name": "Test1 674",
        "Satellite Number": 674,
        "Semi-Major Axis(m)": 6980739.136638005,
        "Time(s)": 100
    },
    {
        "Altitude(m)": 619752.8931753637,
        "Argument of Periapsis(deg)": 0.0011460840504626045,
        "Eccentricity": 0.0,
        "Inclination(deg)": 60.0,
        "Latitude(deg)": -46.03639145522092,
        "Longitude(deg)": -93.89433158520814,
        "Mean Anomaly(deg)": -124.08793239991982,
        "RAAN(deg)": 149.99537945946284,
        "Satellite Name": "Test1 674",
        "Satellite Number": 674,
        "Semi-Major Axis(m)": 6980739.136638005,
        "Time(s)": 110
    },
    {
        "Altitude(m)": 619928.1078130921,
        "Argument of Periapsis(deg)": 0.0012502735095955685,
        "Eccentricity": 0.0,
        "Inclination(deg)": 60.0,
        "Latitude(deg)": -46.46526413541819,
        "Longitude(deg)": -93.29282369035028,
        "Mean Anomaly(deg)": -123.46782625445803,
        "RAAN(deg)": 149.9949594103231,
        "Satellite Name": "Test1 674",
        "Satellite Number": 674,
        "Semi-Major Axis(m)": 6980739.136638005,
        "Time(s)": 120
    },
    {
        "Altitude(m)": 620101.4198145521,
        "Argument of Periapsis(deg)": 0.0013544629687285324,
        "Eccentricity": 0.0,
        "Inclination(deg)": 60.0,
        "Latitude(deg)": -46.8904237418978,
        "Longitude(deg)": -92.68120608111958,
        "Mean Anomaly(deg)": -122.84772010899619,
        "RAAN(deg)": 149.99453936118334,
        "Satellite Name": "Test1 674",
        "Satellite Number": 674,
        "Semi-Major Axis(m)": 6980739.136638005,
        "Time(s)": 130
    },
    {
        "Altitude(m)": 620272.7620048738,
        "Argument of Periapsis(deg)": 0.0014586524278614966,
        "Eccentricity": 0.0,
        "Inclination(deg)": 60.0,
        "Latitude(deg)": -47.3117579436498,
        "Longitude(deg)": -92.05925673084472,
        "Mean Anomaly(deg)": -122.22761396353437,
        "RAAN(deg)": 149.9941193120436,
        "Satellite Name": "Test1 674",
        "Satellite Number": 674,
        "Semi-Major Axis(m)": 6980739.136638005,
        "Time(s)": 140
    },
    {
        "Altitude(m)": 620442.0679212349,
        "Argument of Periapsis(deg)": 0.0015628418869944607,
        "Eccentricity": 0.0,
        "Inclination(deg)": 60.0,
        "Latitude(deg)": -47.729151040951976,
        "Longitude(deg)": -91.42675273943989,
        "Mean Anomaly(deg)": -121.60750781807252,
        "RAAN(deg)": 149.99369926290387,
        "Satellite Name": "Test1 674",
        "Satellite Number": 674,
        "Semi-Major Axis(m)": 6980739.136638005,
        "Time(s)": 150
    },
    {
        "Altitude(m)": 620609.2718416065,
        "Argument of Periapsis(deg)": 0.0016670313461274247,
        "Eccentricity": 0.0,
        "Inclination(deg)": 60.0,
        "Latitude(deg)": -48.1424838995719,
        "Longitude(deg)": -90.78347025758116,
        "Mean Anomaly(deg)": -120.98740167261067,
        "RAAN(deg)": 149.99327921376414,
        "Satellite Name": "Test1 674",
        "Satellite Number": 674,
        "Semi-Major Axis(m)": 6980739.136638005,
        "Time(s)": 160
    },
    {
        "Altitude(m)": 620774.3088130623,
        "Argument of Periapsis(deg)": 0.0017712208052603888,
        "Eccentricity": 0.0,
        "Inclination(deg)": 60.0,
        "Latitude(deg)": -48.55163388926587,
        "Longitude(deg)": -90.12918597016676,
        "Mean Anomaly(deg)": -120.36729552714883,
        "RAAN(deg)": 149.99285916462438,
        "Satellite Name": "Test1 674",
        "Satellite Number": 674,
        "Semi-Major Axis(m)": 6980739.136638005,
        "Time(s)": 170
    },
    {
        "Altitude(m)": 620937.1146798383,
        "Argument of Periapsis(deg)": 0.001875410264393353,
        "Eccentricity": 0.0,
        "Inclination(deg)": 60.0,
        "Latitude(deg)": -48.95647482735816,
        "Longitude(deg)": -89.46367711621448,
        "Mean Anomaly(deg)": -119.74718938168705,
        "RAAN(deg)": 149.99243911548464,
        "Satellite Name": "Test1 674",
        "Satellite Number": 674,
        "Semi-Major Axis(m)": 6980739.136638005,
        "Time(s)": 180
    },
    {
        "Altitude(m)": 621097.6261109198,
        "Argument of Periapsis(deg)": 0.0019795997235263173,
        "Eccentricity": 0.0,
        "Inclination(deg)": 60.0,
        "Latitude(deg)": -49.356876928255815,
        "Longitude(deg)": -88.78672156097554,
        "Mean Anomaly(deg)": -119.1270832362252,
        "RAAN(deg)": 149.9920190663449,
        "Satellite Name": "Test1 674",
        "Satellite Number": 674,
        "Semi-Major Axis(m)": 6980739.136638005,
        "Time(s)": 190
    }
]